{
  "links" : {
    "next" : "https://api.nasa.gov/neo/rest/v1/feed?start_date=2014-03-16&end_date=2014-03-16&detailed=true&api_key=t0TVs3DtDT2H8Oy2Zy8m2eVrNsAVKAexjcZXUckd",
    "prev" : "https://api.nasa.gov/neo/rest/v1/feed?start_date=2014-03-14&end_date=2014-03-14&detailed=true&api_key=t0TVs3DtDT2H8Oy2Zy8m2eVrNsAVKAexjcZXUckd",
    "self" : "https://api.nasa.gov/neo/rest/v1/feed?start_date=2014-03-15&end_date=2014-03-15&detailed=true&api_key=t0TVs3DtDT2H8Oy2Zy8m2eVrNsAVKAexjcZXUckd"
  },
  "element_count" : 14,
  "near_earth_objects" : {
    "2014-03-15" : [ {
      "links" : {
        "self" : "https://api.nasa.gov/neo/rest/v1/neo/3745829?api_key=t0TVs3DtDT2H8Oy2Zy8m2eVrNsAVKAexjcZXUckd"
      },
      "neo_reference_id" : "3745829",
      "name" : "(2016 EG55)",
      "nasa_jpl_url" : "http://ssd.jpl.nasa.gov/sbdb.cgi?sstr=3745829",
      "absolute_magnitude_h" : 23.3,
      "estimated_diameter" : {
        "kilometers" : {
          "estimated_diameter_min" : 0.058150704,
          "estimated_diameter_max" : 0.130028927
        },
        "meters" : {
          "estimated_diameter_min" : 58.1507039646,
          "estimated_diameter_max" : 130.0289270043
        },
        "miles" : {
          "estimated_diameter_min" : 0.0361331611,
          "estimated_diameter_max" : 0.0807962044
        },
        "feet" : {
          "estimated_diameter_min" : 190.7831555951,
          "estimated_diameter_max" : 426.6041048727
        }
      },
      "is_potentially_hazardous_asteroid" : false,
      "close_approach_data" : [ {
        "close_approach_date" : "2014-03-15",
        "epoch_date_close_approach" : 1394866800000,
        "relative_velocity" : {
          "kilometers_per_second" : "22.862251669",
          "kilometers_per_hour" : "82304.1060084821",
          "miles_per_hour" : "51140.5707584371"
        },
        "miss_distance" : {
          "astronomical" : "0.395902028",
          "lunar" : "154.0058898926",
          "kilometers" : "59226104",
          "miles" : "36801392"
        },
        "orbiting_body" : "Earth"
      } ],
      "orbital_data" : {
        "orbit_id" : "8",
        "orbit_determination_date" : "2017-04-06 08:27:44",
        "orbit_uncertainty" : "7",
        "minimum_orbit_intersection" : ".124031",
        "jupiter_tisserand_invariant" : "4.239",
        "epoch_osculation" : "2458000.5",
        "eccentricity" : ".369202371396546",
        "semi_major_axis" : "1.560316229444316",
        "inclination" : "27.32968331165857",
        "ascending_node_longitude" : "168.2349451208901",
        "orbital_period" : "711.8973323602514",
        "perihelion_distance" : ".9842437774049574",
        "perihelion_argument" : "300.7603115576411",
        "aphelion_distance" : "2.136388681483675",
        "perihelion_time" : "2458117.045995301967",
        "mean_anomaly" : "301.0637511878241",
        "mean_motion" : ".5056908961948802",
        "equinox" : "J2000"
      }
    }, {
      "links" : {
        "self" : "https://api.nasa.gov/neo/rest/v1/neo/3759986?api_key=t0TVs3DtDT2H8Oy2Zy8m2eVrNsAVKAexjcZXUckd"
      },
      "neo_reference_id" : "3759986",
      "name" : "(2016 SG17)",
      "nasa_jpl_url" : "http://ssd.jpl.nasa.gov/sbdb.cgi?sstr=3759986",
      "absolute_magnitude_h" : 21.6,
      "estimated_diameter" : {
        "kilometers" : {
          "estimated_diameter_min" : 0.1272198785,
          "estimated_diameter_max" : 0.2844722965
        },
        "meters" : {
          "estimated_diameter_min" : 127.2198785394,
          "estimated_diameter_max" : 284.4722965033
        },
        "miles" : {
          "estimated_diameter_min" : 0.0790507431,
          "estimated_diameter_max" : 0.1767628354
        },
        "feet" : {
          "estimated_diameter_min" : 417.3880663071,
          "estimated_diameter_max" : 933.3080892598
        }
      },
      "is_potentially_hazardous_asteroid" : false,
      "close_approach_data" : [ {
        "close_approach_date" : "2014-03-15",
        "epoch_date_close_approach" : 1394866800000,
        "relative_velocity" : {
          "kilometers_per_second" : "20.1845813791",
          "kilometers_per_hour" : "72664.492964836",
          "miles_per_hour" : "45150.890086956"
        },
        "miss_distance" : {
          "astronomical" : "0.2738625473",
          "lunar" : "106.5325317383",
          "kilometers" : "40969252",
          "miles" : "25457114"
        },
        "orbiting_body" : "Earth"
      } ],
      "orbital_data" : {
        "orbit_id" : "17",
        "orbit_determination_date" : "2017-04-06 08:23:33",
        "orbit_uncertainty" : "5",
        "minimum_orbit_intersection" : ".176342",
        "jupiter_tisserand_invariant" : "5.846",
        "epoch_osculation" : "2458000.5",
        "eccentricity" : ".1959656502305822",
        "semi_major_axis" : "1.018605493059833",
        "inclination" : "31.73411400379178",
        "ascending_node_longitude" : "16.30289359724117",
        "orbital_period" : "375.4978439411666",
        "perihelion_distance" : ".8189938052839197",
        "perihelion_argument" : "192.4688173071797",
        "aphelion_distance" : "1.218217180835746",
        "perihelion_time" : "2457874.316753499823",
        "mean_anomaly" : "120.9753117708478",
        "mean_motion" : ".9587272092470526",
        "equinox" : "J2000"
      }
    } ]
  }
}